[{"OBJECT_NAME":"STARLINK-30764","OBJECT_ID":"2023-166W","EPOCH":"2026-03-09T15:22:28.844832","MEAN_MOTION":15.30193833,"ECCENTRICITY":9.66e-5,"INCLINATION":53.1597,"RA_OF_ASC_NODE":219.7103,"ARG_OF_PERICENTER":89.1937,"MEAN_ANOMALY":270.9174,"EPHEMERIS_TYPE":0,"CLASSIFICATION_TYPE":"U","NORAD_CAT_ID":58170,"ELEMENT_SET_NO":999,"REV_AT_EPOCH":13317,"BSTAR":3.1912e-5,"MEAN_MOTION_DOT":5.86e-6,"MEAN_MOTION_DDOT":0},{"OBJECT_NAME":"TEVEL2-6","OBJECT_ID":"2025-052F","EPOCH":"2026-03-09T15:35:24.554400","MEAN_MOTION":15.30760889,"ECCENTRICITY":0.0004769,"INCLINATION":97.4016,"RA_OF_ASC_NODE":325.0381,"ARG_OF_PERICENTER":95.6604,"MEAN_ANOMALY":264.5181,"EPHEMERIS_TYPE":0,"CLASSIFICATION_TYPE":"U","NORAD_CAT_ID":63215,"ELEMENT_SET_NO":999,"REV_AT_EPOCH":5486,"BSTAR":0.00070909,"MEAN_MOTION_DOT":0.00021046,"MEAN_MOTION_DDOT":0}]
