STARLINK-30764          
1 58170U 23166W   26068.64061163  .00000586  00000+0  31912-4 0  9996
2 58170  53.1597 219.7103 0000966  89.1937 270.9174 15.30193833133175
TEVEL2-6                
1 63215U 25052F   26068.64958975  .00021046  00000+0  70909-3 0  9996
2 63215  97.4016 325.0381 0004769  95.6604 264.5181 15.30760889 54861
